******** Week 373 almanac for PRN-17 ********
ID:                         17
Health:                     000
Eccentricity:               0.1258611679E-001
Time of Applicability(s):  503808.0000
Orbital Inclination(rad):   0.9582969730
Rate of Right Ascen(r/s):  -0.7806039439E-008
SQRT(A)  (m 1/2):           5153.598145
Right Ascen at Week(rad):   0.4396405416E+000
Argument of Perigee(rad):  -1.106277283
Mean Anom(rad):             0.4373983681E+000
Af0(s):                    -0.1497268677E-003
Af1(s/s):                  -0.7275957614E-011
week:                        373

******** Week 373 almanac for PRN-18 ********
ID:                         18
Health:                     000
Eccentricity:               0.6066799164E-002
Time of Applicability(s):  503808.0000
Orbital Inclination(rad):   0.9709103697
Rate of Right Ascen(r/s):  -0.7794610391E-008
SQRT(A)  (m 1/2):           5153.581543
Right Ascen at Week(rad):   0.1451291883E+001
Argument of Perigee(rad):  -2.873175227
Mean Anom(rad):            -0.1535177338E+001
Af0(s):                    -0.3347396851E-003
Af1(s/s):                   0.1091393642E-010
week:                        373

******** Week 373 almanac for PRN-19 ********
ID:                         19
Health:                     000
Eccentricity:               0.1160383224E-001
Time of Applicability(s):  503808.0000
Orbital Inclination(rad):   0.9574401009
Rate of Right Ascen(r/s):  -0.7806039439E-008
SQRT(A)  (m 1/2):           5153.695312
Right Ascen at Week(rad):   0.4834372661E+000
Argument of Perigee(rad):   2.991884967
Mean Anom(rad):             0.2130416936E+001
Af0(s):                     0.7009506226E-003
Af1(s/s):                   0.0000000000E+000
week:                        373

******** Week 373 almanac for PRN-20 ********
ID:                         20
Health:                     000
Eccentricity:               0.2020359039E-002
Time of Applicability(s):  503808.0000
Orbital Inclination(rad):   0.9616046190
Rate of Right Ascen(r/s):  -0.7886042771E-008
SQRT(A)  (m 1/2):           5153.559570
Right Ascen at Week(rad):  -0.2779010304E+001
Argument of Perigee(rad):  -1.819282115
Mean Anom(rad):             0.3082018697E+001
Af0(s):                     0.1840591431E-003
Af1(s/s):                   0.1455191523E-010
week:                        373

******** Week 373 almanac for PRN-21 ********
ID:                         21
Health:                     000
Eccentricity:               0.7863044739E-003
Time of Applicability(s):  503808.0000
Orbital Inclination(rad):   0.9639355508
Rate of Right Ascen(r/s):  -0.8126052768E-008
SQRT(A)  (m 1/2):           5153.512695
Right Ascen at Week(rad):   0.2498816504E+001
Argument of Perigee(rad):  -0.104103217
Mean Anom(rad):             0.2748782718E+001
Af0(s):                     0.4110336304E-003
Af1(s/s):                  -0.3637978807E-011
week:                        373

******** Week 373 almanac for PRN-22 ********
ID:                         22
Health:                     000
Eccentricity:               0.1190757751E-001
Time of Applicability(s):  503808.0000
Orbital Inclination(rad):   0.9573562113
Rate of Right Ascen(r/s):  -0.7931758961E-008
SQRT(A)  (m 1/2):           5153.663086
Right Ascen at Week(rad):  -0.5726478363E+000
Argument of Perigee(rad):  -0.994186206
Mean Anom(rad):             0.1066734210E+001
Af0(s):                     0.1049041748E-004
Af1(s/s):                   0.7275957614E-011
week:                        373

******** Week 373 almanac for PRN-23 ********
ID:                         23
Health:                     000
Eccentricity:               0.6258010864E-002
Time of Applicability(s):  503808.0000
Orbital Inclination(rad):   0.9889646045
Rate of Right Ascen(r/s):  -0.7851755629E-008
SQRT(A)  (m 1/2):           5153.673828
Right Ascen at Week(rad):   0.2460356504E+001
Argument of Perigee(rad):  -2.744426827
Mean Anom(rad):            -0.2731504087E+001
Af0(s):                     0.6551742554E-003
Af1(s/s):                   0.3637978807E-011
week:                        373

******** Week 373 almanac for PRN-24 ********
ID:                         24
Health:                     000
Eccentricity:               0.1815986633E-001
Time of Applicability(s):  503808.0000
Orbital Inclination(rad):   0.9348318606
Rate of Right Ascen(r/s):  -0.7966046104E-008
SQRT(A)  (m 1/2):           5153.582031
Right Ascen at Week(rad):  -0.1821768467E+001
Argument of Perigee(rad):   1.150732766
Mean Anom(rad):            -0.1348225676E+001
Af0(s):                     0.4673004150E-004
Af1(s/s):                   0.1818989404E-010
week:                        373

******** Week 373 almanac for PRN-25 ********
ID:                         25
Health:                     000
Eccentricity:               0.1285219193E-001
Time of Applicability(s):  503808.0000
Orbital Inclination(rad):   0.9471037069
Rate of Right Ascen(r/s):  -0.8034620388E-008
SQRT(A)  (m 1/2):           5153.623047
Right Ascen at Week(rad):  -0.6877181168E+000
Argument of Perigee(rad):   1.161090506
Mean Anom(rad):             0.3122892394E+001
Af0(s):                     0.4167556763E-003
Af1(s/s):                  -0.3637978807E-011
week:                        373

******** Week 373 almanac for PRN-26 ********
ID:                         26
Health:                     000
Eccentricity:               0.1108837128E-001
Time of Applicability(s):  503808.0000
Orbital Inclination(rad):   0.9278031127
Rate of Right Ascen(r/s):  -0.8240343243E-008
SQRT(A)  (m 1/2):           5153.699707
Right Ascen at Week(rad):  -0.7640224257E+000
Argument of Perigee(rad):   0.715981413
Mean Anom(rad):             0.2276863415E+001
Af0(s):                    -0.3719329834E-003
Af1(s/s):                  -0.3637978807E-011
week:                        373

******** Week 373 almanac for PRN-27 ********
ID:                         27
Health:                     000
Eccentricity:               0.1432514191E-001
Time of Applicability(s):  503808.0000
Orbital Inclination(rad):   0.9517775546
Rate of Right Ascen(r/s):  -0.7897471819E-008
SQRT(A)  (m 1/2):           5153.619629
Right Ascen at Week(rad):   0.3663761062E+000
Argument of Perigee(rad):   0.899188379
Mean Anom(rad):             0.5731163446E+000
Af0(s):                     0.0000000000E+000
Af1(s/s):                   0.0000000000E+000
week:                        373

******** Week 373 almanac for PRN-28 ********
ID:                         28
Health:                     000
Eccentricity:               0.4858970642E-003
Time of Applicability(s):  503808.0000
Orbital Inclination(rad):   0.9616225954
Rate of Right Ascen(r/s):  -0.7691748964E-008
SQRT(A)  (m 1/2):           5153.547852
Right Ascen at Week(rad):  -0.1736200352E+001
Argument of Perigee(rad):  -0.433453686
Mean Anom(rad):            -0.1546354126E+001
Af0(s):                    -0.5083084106E-003
Af1(s/s):                   0.1091393642E-010
week:                        373

******** Week 373 almanac for PRN-29 ********
ID:                         29
Health:                     000
Eccentricity:               0.3620147705E-002
Time of Applicability(s):  503808.0000
Orbital Inclination(rad):   0.9609694551
Rate of Right Ascen(r/s):  -0.7771752296E-008
SQRT(A)  (m 1/2):           5153.659180
Right Ascen at Week(rad):   0.4566229373E+000
Argument of Perigee(rad):   2.816497334
Mean Anom(rad):             0.3340906043E+000
Af0(s):                    -0.3070831299E-003
Af1(s/s):                   0.7275957614E-011
week:                        373

******** Week 373 almanac for PRN-30 ********
ID:                         30
Health:                     000
Eccentricity:               0.8249282837E-002
Time of Applicability(s):  503808.0000
Orbital Inclination(rad):   0.9359883383
Rate of Right Ascen(r/s):  -0.7954617056E-008
SQRT(A)  (m 1/2):           5153.651855
Right Ascen at Week(rad):  -0.1721930136E+001
Argument of Perigee(rad):  -2.266889919
Mean Anom(rad):            -0.2598227896E+001
Af0(s):                     0.2489089966E-003
Af1(s/s):                   0.1455191523E-010
week:                        373

******** Week 373 almanac for PRN-31 ********
ID:                         31
Health:                     000
Eccentricity:               0.1081562042E-001
Time of Applicability(s):  503808.0000
Orbital Inclination(rad):   0.9544140841
Rate of Right Ascen(r/s):  -0.7760323249E-008
SQRT(A)  (m 1/2):           5153.561035
Right Ascen at Week(rad):  -0.1686887139E+001
Argument of Perigee(rad):   0.958176606
Mean Anom(rad):             0.2881037253E+001
Af0(s):                    -0.1440048218E-003
Af1(s/s):                   0.3637978807E-011
week:                        373

******** Week 373 almanac for PRN-32 ********
ID:                         32
Health:                     000
Eccentricity:               0.9389877319E-002
Time of Applicability(s):  503808.0000
Orbital Inclination(rad):   0.9692086097
Rate of Right Ascen(r/s):  -0.7806039439E-008
SQRT(A)  (m 1/2):           5153.726074
Right Ascen at Week(rad):  -0.2766817478E+001
Argument of Perigee(rad):  -1.977876104
Mean Anom(rad):             0.1089014382E+001
Af0(s):                     0.9346008301E-004
Af1(s/s):                   0.2182787284E-010
week:                        373

